GLOBALSTAR M023         
1 25621U 99004A   24134.56463748 -.00000048  00000+0  30918-3 0  9991
2 25621  52.0090 190.2593 0009953 324.6110 183.3769 12.62453145165255
GLOBALSTAR M040         
1 25622U 99004B   24134.43426378 -.00000028  00000+0  42361-3 0  9999
2 25622  51.9904 194.2213 0000758 217.0938 155.9852 12.61973904164782
GLOBALSTAR M036         
1 25623U 99004C   24134.49070598 -.00000085  00000+0 -39700-4 0  9993
2 25623  51.9957 213.8042 0010908   4.4794   8.5485 11.86565706131530
GLOBALSTAR M038         
1 25624U 99004D   24134.47456809 -.00000060  00000+0  29195-3 0  9993
2 25624  51.9944 142.6699 0001882 302.0324 224.0143 12.32499394153082
GLOBALSTAR M022         
1 25649U 99012A   24134.49686589 -.00000023  00000+0  76304-3 0  9994
2 25649  52.0045 297.4255 0003301 100.2837 294.1495 12.02482125128299
GLOBALSTAR M041         
1 25650U 99012B   24134.45437802 -.00000050  00000+0  45833-3 0  9997
2 25650  51.9992 166.8044 0002667 248.6744 111.3808 11.96659667130428
GLOBALSTAR M037         
1 25652U 99012D   24134.29336714 -.00000028  00000+0  42266-3 0  9993
2 25652  52.0012 321.8541 0002264  44.2161 127.4762 12.62405264160769
